{"fetched_at":"2026-04-16T17:13:58Z","count":4884,"tles":[{"name":"TRANSPORTER-16 OBJECT BY","line1":"1 68486U 26067BY  26105.86722653  .00000283  00000+0  33586-4 0  9997","line2":"2 68486  97.7539  65.1036 0002032 118.5094 241.6330 14.91769087  2430","category":"Other"}]}