{
  "norad_id": 68486,
  "name": "TRANSPORTER-16 OBJECT BY",
  "history": [
    {
      "epoch": "2026-04-15T20:48:48.372192Z",
      "apogee_km": 593.8357147018842,
      "perigee_km": 591.0028806225146,
      "latitude_deg": 4.8862256324382707e-05,
      "longitude_deg": -91.12109028002068,
      "height_km": 596.1344764941061,
      "semi_major_axis_km": 6970.556297662199,
      "eccentricity": 0.0002032,
      "inclination_deg": 97.7539,
      "raan_deg": 65.1036,
      "arg_perigee_deg": 118.5094,
      "mean_anomaly_deg": 241.633,
      "mean_motion_rev_day": 14.91769087
    }
  ]
}